OBJECT_NAME,OBJECT_ID,EPOCH,MEAN_MOTION,ECCENTRICITY,INCLINATION,RA_OF_ASC_NODE,ARG_OF_PERICENTER,MEAN_ANOMALY,EPHEMERIS_TYPE,CLASSIFICATION_TYPE,NORAD_CAT_ID,ELEMENT_SET_NO,REV_AT_EPOCH,BSTAR,MEAN_MOTION_DOT,MEAN_MOTION_DDOT
STARLINK-37963,2026-147F,2026-07-19T02:09:42.251904,15.80863765,.00011028,97.2839,236.7111,89.7995,270.3400,0,U,69709,999,447,.46299553E-3,.89654E-3,0
STARLINK-37969,2026-147G,2026-07-19T02:08:37.657536,15.80884993,.00009317,97.2828,236.7123,76.7550,283.3822,0,U,69710,999,447,.10009957E-2,.196596E-2,0
STARLINK-37956,2026-147H,2026-07-19T02:07:34.257216,15.80656510,.0000891,97.2838,236.7146,64.6355,295.5005,0,U,69711,999,447,-.11226379E-2,-.208587E-2,0
STARLINK-38043,2026-147J,2026-07-19T02:06:27.489888,15.80869782,.00012941,97.2826,236.7143,73.4439,286.6972,0,U,69712,999,447,.51239334E-3,.99374E-3,0
STARLINK-38020,2026-147K,2026-07-19T03:36:33.734880,15.80671526,.00017171,97.2826,236.7827,24.4755,335.6594,0,U,69713,999,448,-.99592851E-3,-.185695E-2,0
STARLINK-38059,2026-147L,2026-07-19T02:04:33.071232,15.79660638,.00027059,97.2821,236.7167,27.0907,333.0501,0,U,69714,999,447,-.58985505E-2,-.961056E-2,0
STARLINK-38061,2026-147M,2026-07-19T02:03:12.812544,15.80820465,.00009188,97.2817,236.7176,89.8528,270.2845,0,U,69715,999,447,.80118308E-3,.156129E-2,0
STARLINK-38060,2026-147N,2026-07-19T02:02:07.864800,15.80817401,.00007132,97.2814,236.7180,83.5402,276.5947,0,U,69716,999,447,.77819298E-3,.151544E-2,0
STARLINK-38040,2026-147P,2026-07-19T02:01:03.038880,15.80828466,.00017107,97.2822,236.7204,359.0245,1.1019,0,U,69717,999,447,.79327364E-3,.15462E-2,0
STARLINK-37989,2026-147Q,2026-07-19T05:02:18.962880,15.80664957,.00065885,97.2847,236.8551,327.0988,32.9870,0,U,69718,999,449,.11330884E-2,.2212E-2,0
STARLINK-38039,2026-147R,2026-07-19T01:58:52.991328,15.80815217,.00006275,97.2819,236.7207,62.8587,297.2745,0,U,69719,999,447,.64389621E-3,.12497E-2,0
STARLINK-38003,2026-147S,2026-07-19T01:57:48.104928,15.80820527,.00010013,97.2827,236.7222,82.5556,277.5826,0,U,69720,999,447,.60334148E-3,.117011E-2,0
STARLINK-38014,2026-147T,2026-07-19T01:56:42.952416,15.80861548,.00020901,97.2813,236.7234,113.7474,246.4013,0,U,69721,999,447,.44686721E-3,.86493E-3,0
STARLINK-37915,2026-147U,2026-07-19T01:55:38.256096,15.80865194,.00017812,97.2817,236.7245,98.0680,262.0791,0,U,69722,999,447,.39278463E-3,.75926E-3,0
STARLINK-38007,2026-147V,2026-07-19T01:59:04.970688,15.80825329,.00015391,97.2832,236.7203,320.8253,39.2903,0,U,69723,999,447,.84122043E-3,.164129E-2,0
STARLINK-38008,2026-147W,2026-07-19T01:53:28.504896,15.80813162,.00011538,97.2831,236.7271,9.6192,350.5098,0,U,69724,999,447,.69795443E-3,.135628E-2,0
STARLINK-38021,2026-147X,2026-07-19T01:52:23.558880,15.80821784,.00007223,97.2826,236.7285,94.3849,265.7502,0,U,69725,999,447,.83795149E-3,.163449E-2,0
STARLINK-38015,2026-147Y,2026-07-17T01:14:28.656384,15.80693791,.00031092,97.2828,234.5863,175.2803,184.8496,0,U,69726,999,415,.13764939E-2,.270378E-2,0
STARLINK-38010,2026-147Z,2026-07-19T01:12:38.946528,15.75243742,.00013529,97.2839,236.6129,113.1912,246.9496,0,U,69727,999,446,.75870359E-3,.114836E-2,0
SXM-11,2026-148A,2026-07-19T06:55:03.118656,1.00270297,.00020304,0.1007,264.9908,185.1899,190.1310,0,U,69728,999,36,0,.6E-7,0
HAIYANG-2E,2026-149A,2026-07-19T00:05:09.846816,13.79314769,.00015776,99.3454,206.8764,89.3102,270.8230,0,U,69737,999,234,.1849445E-5,-.42E-6,0
CZ-4B R/B,2026-149B,2026-07-19T00:56:56.257728,14.30068496,.01979647,99.3218,208.3329,318.9910,39.6526,0,U,69738,999,268,.29725506E-4,.37E-6,0
STARLINK-38033,2026-150A,2026-07-19T01:44:28.004640,15.80946923,.00011294,97.2862,38.6596,48.9603,311.1763,0,U,69739,999,393,.1274613E-2,.252719E-2,0
STARLINK-38076,2026-150B,2026-07-19T07:05:45.833568,15.75228173,.00014126,97.2839,38.8115,70.8793,289.2625,0,U,69740,999,396,.114904E-2,.175105E-2,0
STARLINK-38074,2026-150C,2026-07-19T06:00:02.000160,15.75231456,.00012195,97.2842,38.8441,92.1072,189.3413,0,U,69741,999,394,-.89864778E-3,-.13235E-2,0
STARLINK-38041,2026-150D,2026-07-19T06:00:02.000160,15.75250064,.00015452,97.2855,38.8211,95.7325,131.7224,0,U,69742,999,394,-.1169846E-2,-.171616E-2,0
STARLINK-38087,2026-150E,2026-07-19T06:00:02.000160,15.75244446,.00013127,97.2847,38.8381,97.2234,172.2286,0,U,69743,999,394,-.11132189E-2,-.163424E-2,0
STARLINK-38078,2026-150F,2026-07-19T01:37:29.710272,15.80807882,.00021851,97.2846,38.6650,77.2837,282.8676,0,U,69744,999,393,.9440601E-3,.184506E-2,0
STARLINK-38047,2026-150G,2026-07-19T06:00:02.000160,15.75238612,.00008995,97.2854,38.8245,101.4230,136.0332,0,U,69745,999,394,-.10405806E-2,-.152909E-2,0
STARLINK-38046,2026-150H,2026-07-19T06:00:02.000160,15.77904904,.00016329,97.2843,38.8626,89.8627,238.6797,0,U,69746,999,394,-.14839579E-1,-.2183291E-1,0
