STARLINK-37963          
1 69709U 26147F   26200.09007236  .00089654  00000+0  46300-3 0  9995
2 69709  97.2839 236.7111 0001102  89.7995 270.3400 15.80863765  4473
STARLINK-37969          
1 69710U 26147G   26200.08932474  .00196596  00000+0  10010-2 0  9999
2 69710  97.2828 236.7123 0000931  76.7550 283.3822 15.80884993  4476
STARLINK-37956          
1 69711U 26147H   26200.08859094 -.00208587  00000+0 -11226-2 0  9992
2 69711  97.2838 236.7146 0000891  64.6355 295.5005 15.80656510  4477
STARLINK-38043          
1 69712U 26147J   26200.08781817  .00099374  00000+0  51239-3 0  9999
2 69712  97.2826 236.7143 0001294  73.4439 286.6972 15.80869782  4472
STARLINK-38020          
1 69713U 26147K   26200.15039045 -.00185695  00000+0 -99593-3 0  9996
2 69713  97.2826 236.7827 0001717  24.4755 335.6594 15.80671526  4482
STARLINK-38059          
1 69714U 26147L   26200.08649388 -.00961056  00000+0 -58986-2 0  9999
2 69714  97.2821 236.7167 0002705  27.0907 333.0501 15.79660638  4470
STARLINK-38061          
1 69715U 26147M   26200.08556496  .00156129  00000+0  80118-3 0  9995
2 69715  97.2817 236.7176 0000918  89.8528 270.2845 15.80820465  4476
STARLINK-38060          
1 69716U 26147N   26200.08481325  .00151544  00000+0  77819-3 0  9994
2 69716  97.2814 236.7180 0000713  83.5402 276.5947 15.80817401  4472
STARLINK-38040          
1 69717U 26147P   26200.08406295  .00154620  00000+0  79327-3 0  9992
2 69717  97.2822 236.7204 0001710 359.0245   1.1019 15.80828466  4478
STARLINK-37989          
1 69718U 26147Q   26200.20994170  .00221200  00000+0  11331-2 0  9990
2 69718  97.2847 236.8551 0006588 327.0988  32.9870 15.80664957  4491
STARLINK-38039          
1 69719U 26147R   26200.08255777  .00124970  00000+0  64390-3 0  9990
2 69719  97.2819 236.7207 0000627  62.8587 297.2745 15.80815217  4477
STARLINK-38003          
1 69720U 26147S   26200.08180677  .00117011  00000+0  60334-3 0  9990
2 69720  97.2827 236.7222 0001001  82.5556 277.5826 15.80820527  4478
STARLINK-38014          
1 69721U 26147T   26200.08105269  .00086493  00000+0  44687-3 0  9997
2 69721  97.2813 236.7234 0002090 113.7474 246.4013 15.80861548  4473
STARLINK-37915          
1 69722U 26147U   26200.08030389  .00075926  00000+0  39278-3 0  9997
2 69722  97.2817 236.7245 0001781  98.0680 262.0791 15.80865194  4478
STARLINK-38007          
1 69723U 26147V   26200.08269642  .00164129  00000+0  84122-3 0  9996
2 69723  97.2832 236.7203 0001539 320.8253  39.2903 15.80825329  4478
STARLINK-38008          
1 69724U 26147W   26200.07880214  .00135628  00000+0  69795-3 0  9991
2 69724  97.2831 236.7271 0001153   9.6192 350.5098 15.80813162  4475
STARLINK-38021          
1 69725U 26147X   26200.07805045  .00163449  00000+0  83795-3 0  9999
2 69725  97.2826 236.7285 0000722  94.3849 265.7502 15.80821784  4472
STARLINK-38015          
1 69726U 26147Y   26198.05172056  .00270378  00000+0  13765-2 0  9992
2 69726  97.2828 234.5863 0003109 175.2803 184.8496 15.80693791  4157
STARLINK-38010          
1 69727U 26147Z   26200.05045077  .00114836  00000+0  75870-3 0  9991
2 69727  97.2839 236.6129 0001352 113.1912 246.9496 15.75243742  4463
SXM-11                  
1 69728U 26148A   26200.28823054  .00000006  00000+0  00000+0 0  9999
2 69728   0.1007 264.9908 0002030 185.1899 190.1310  1.00270297   368
HAIYANG-2E              
1 69737U 26149A   26200.00358619 -.00000042  00000+0  18494-5 0  9993
2 69737  99.3454 206.8764 0001577  89.3102 270.8230 13.79314769  2345
CZ-4B R/B               
1 69738U 26149B   26200.03954002  .00000037  00000+0  29726-4 0  9997
2 69738  99.3218 208.3329 0197964 318.9910  39.6526 14.30068496  2689
STARLINK-38033          
1 69739U 26150A   26200.07254635  .00252719  00000+0  12746-2 0  9997
2 69739  97.2862  38.6596 0001129  48.9603 311.1763 15.80946923  3934
STARLINK-38076          
1 69740U 26150B   26200.29566937  .00175105  00000+0  11490-2 0  9992
2 69740  97.2839  38.8115 0001412  70.8793 289.2625 15.75228173  3967
STARLINK-38074          
1 69741U 26150C   26200.25002315 -.00132350  00000+0 -89865-3 0  9993
2 69741  97.2842  38.8441 0001219  92.1072 189.3413 15.75231456  3947
STARLINK-38041          
1 69742U 26150D   26200.25002315 -.00171616  00000+0 -11698-2 0  9990
2 69742  97.2855  38.8211 0001545  95.7325 131.7224 15.75250064  3946
STARLINK-38087          
1 69743U 26150E   26200.25002315 -.00163424  00000+0 -11132-2 0  9992
2 69743  97.2847  38.8381 0001312  97.2234 172.2286 15.75244446  3949
STARLINK-38078          
1 69744U 26150F   26200.06770498  .00184506  00000+0  94406-3 0  9994
2 69744  97.2846  38.6650 0002185  77.2837 282.8676 15.80807882  3937
STARLINK-38047          
1 69745U 26150G   26200.25002315 -.00152909  00000+0 -10406-2 0  9993
2 69745  97.2854  38.8245 0000899 101.4230 136.0332 15.75238612  3949
STARLINK-38046          
1 69746U 26150H   26200.25002315 -.02183291  00000+0 -14840-1 0  9999
2 69746  97.2843  38.8626 0001632  89.8627 238.6797 15.77904904  3946
